INTELSAT 40E (IS-40E)   
1 56174U 23052A   26117.19252382 -.00000184  00000+0  00000+0 0  9996
2 56174   0.0139 238.6065 0001099 198.9307 115.9540  1.00272133 11314
VIASAT-3 F1             
1 56370U 23060A   26117.04685472 -.00000196  00000+0  00000+0 0  9990
2 56370   0.0169 278.7228 0001104 166.2945  57.9937  1.00271212 10922
ARCTURUS                
1 56371U 23060B   26116.96997176 -.00000071  00000+0  00000+0 0  9990
2 56371   2.6442  80.5687 0001623 358.0152 198.0876  1.00269907 10949
GS-1                    
1 56372U 23060C   26116.87752946 -.00000220  00000+0  00000+0 0  9991
2 56372   2.5944  80.4043 0004451 274.4448 263.5069  1.00288335  7025
BEIDOU-3 G4             
1 56564U 23066A   26116.94952769 -.00000293  00000+0  00000+0 0  9993
2 56564   0.5570 320.0463 0002817 160.5187 216.2962  1.00272365 10880
ARABSAT-7B (BADR-8)     
1 56757U 23075A   26117.21155843  .00000135  00000+0  00000+0 0  9990
2 56757   0.0802  34.6021 0005083 336.4566 306.3074  1.00272771 10604
NVS-01 (IRNSS-1J)       
1 56759U 23076A   26117.01877463 -.00000349  00000+0  00000+0 0  9998
2 56759   2.2864 246.5551 0005410  50.0990  54.6352  1.00268329 10600
NUSANTARA TIGA (SATRIA) 
1 57045U 23086A   26116.95074102 -.00000246  00000+0  00000+0 0  9995
2 57045   0.0482 313.2028 0004942  24.2340   5.7802  1.00271423  9247
H2SAT (HEINRICH HERTZ)  
1 57213U 23093A   26117.22267125  .00000000  00000+0  00000+0 0  9997
2 57213   0.0173 229.4810 0001001 262.3438 164.2527  1.00270609 10404
SYRACUSE 4B             
1 57214U 23093B   26117.22822619  .00000000  00000+0  00000+0 0  9993
2 57214   0.0141 232.8214 0000255 206.7453 211.3567  1.00269530  6454
JUPITER 3 (ECHOSTAR 24) 
1 57479U 23108A   26116.66822444  .00000000  00000+0  00000+0 0  9996
2 57479   0.0177 241.9086 0001054 161.8593 316.2405  1.00269999 10122
GALAXY 37 (G-37)        
1 57493U 23112A   26117.16294919  .00000000  00000+0  00000+0 0  9993
2 57493   0.0126 245.2489 0002224 150.0018 111.5676  1.00270413 10037
LUDI TANCE-4 01A        
1 57624U 23120A   26117.19191774 -.00000198  00000+0  00000+0 0  9995
2 57624  15.1333 195.2287 0002865 114.8387  63.6781  1.00267919 10039
TJS-10                  
1 58204U 23169A   26116.72583683 -.00000279  00000+0  00000+0 0  9995
2 58204   2.4137  81.0758 0001551  49.7885  75.7719  1.00459017  9024
ZHONGXING-6E            
1 58253U 23172A   26117.01600128 -.00000372  00000+0  00000+0 0  9994
2 58253   0.0451  81.0345 0003124 316.9726 298.2811  1.00270582  9140
YAOGAN-41               
1 58582U 23197A   26117.01747462 -.00000378  00000+0  00000+0 0  9995
2 58582   3.2228 312.3807 0012626 184.8743 207.2940  1.00272508  8819
OVZON-3                 
1 58698U 24003A   26117.07623485  .00000041  00000+0  00000+0 0  9990
2 58698   0.0129 191.8541 0000159  99.7169  10.6347  1.00273899  6933
